NOAA 19                 
1 33591U 09005A   24129.57671575  .00000329  00000+0  20083-3 0  9995
2 33591  99.0499 184.9520 0014498  47.7131 312.5267 14.12990870785772
GOES 14                 
1 35491U 09033A   24129.62354988 -.00000065  00000+0  00000+0 0  9990
2 35491   0.2475 108.2893 0003381 324.2689 270.1810  1.00270179 54399
DMSP 5D-3 F18 (USA 210) 
1 35951U 09057A   24129.57038665  .00000431  00000+0  24972-3 0  9996
2 35951  98.8119 105.4592 0009936 281.6605  78.3452 14.14093001750781
EWS-G2 (GOES 15)        
1 36411U 10008A   24128.79014545  .00000035  00000+0  00000+0 0  9992
2 36411   0.1941  90.6070 0001391 181.2007 300.2702  1.00276065 51914
COMS 1                  
1 36744U 10032A   24129.56634965 -.00000345  00000+0  00000+0 0  9993
2 36744   2.8304  84.9206 0000690 329.0683 144.8959  1.00270528 50930
FENGYUN 3B              
1 37214U 10059A   24129.60563167  .00000136  00000+0  94973-4 0  9999
2 37214  99.0581 157.1407 0021805 201.9467 268.4435 14.14483171698617
SUOMI NPP               
1 37849U 11061A   24129.57171425  .00000184  00000+0  10800-3 0  9994
2 37849  98.7205  68.1496 0001553  66.9775 293.1565 14.19560862649251
FENGYUN 2F              
1 38049U 12002A   24129.64498075 -.00000359  00000+0  00000+0 0  9996
2 38049   5.4981  73.5115 0002162  87.1120  50.6423  1.00279094 45163
METEOSAT-10 (MSG-3)     
1 38552U 12035B   24127.95535344 -.00000007  00000+0  00000+0 0  9994
2 38552   2.8745  60.6432 0002013 291.6636 216.9202  1.00270346 43126
METOP-B                 
1 38771U 12049A   24129.61618601  .00000248  00000+0  13283-3 0  9992
2 38771  98.6300 187.7206 0001765 113.5238 246.6125 14.21522039603933
INSAT-3D                
1 39216U 13038B   24128.91085591 -.00000157  00000+0  00000+0 0  9993
2 39216   0.0235  76.9093 0001246 222.5924 336.7416  1.00269915 39359
FENGYUN 3C              
1 39260U 13052A   24129.60238015  .00000195  00000+0  11924-3 0  9998
2 39260  98.4290 131.3081 0012360  82.3578 277.9001 14.16192652549669
METEOR-M 2              
1 40069U 14037A   24129.59835207  .00000237  00000+0  12869-3 0  9991
2 40069  98.4363 125.6080 0006941 109.6336 250.5592 14.20948722510007
HIMAWARI-8              
1 40267U 14060A   24128.63474328 -.00000276  00000+0  00000+0 0  9998
2 40267   0.0413 130.0807 0000989 320.0100 145.0331  1.00271954 35037
FENGYUN 2G              
1 40367U 14090A   24129.63623344 -.00000300  00000+0  00000+0 0  9995
2 40367   3.6910  81.9647 0002546  83.0353  30.3788  1.00262364 34285
METEOSAT-11 (MSG-4)     
1 40732U 15034A   24128.10743949  .00000062  00000+0  00000+0 0  9999
2 40732   1.2888  67.9884 0001464 171.9284  33.5924  1.00266153   116
ELEKTRO-L 2             
1 41105U 15074A   24127.17340954 -.00000116  00000+0  00000+0 0  9994
2 41105   4.7361  79.9518 0001154 220.5725 331.8851  1.00269378 30768
INSAT-3DR               
1 41752U 16054A   24128.90952071 -.00000077  00000+0  00000+0 0  9998
2 41752   0.0936  91.4546 0010740 182.0235 354.1414  1.00270377 28099
HIMAWARI-9              
1 41836U 16064A   24128.42966150 -.00000276  00000+0  00000+0 0  9993
2 41836   0.0564  86.5270 0000724 325.7698 108.8678  1.00268904 27489
GOES 16                 
1 41866U 16071A   24128.51507778 -.00000249  00000+0  00000+0 0  9991
2 41866   0.0343 275.3365 0000356 122.6510 298.0807  1.00271690 27378
FENGYUN 4A              
1 41882U 16077A   24128.91147039 -.00000195  00000+0  00000+0 0  9999
2 41882   0.3574  84.1571 0008544 343.2012 213.3270  1.00263176 27201
CYGFM05                 
1 41884U 16078A   24129.51552234  .00009732  00000+0  36894-3 0  9995
2 41884  34.9527 192.0885 0012661 197.9933 162.0335 15.26031829410010
CYGFM04                 
1 41885U 16078B   24129.52720844  .00010131  00000+0  37385-3 0  9992
2 41885  34.9473 176.4624 0010672 221.5208 138.4696 15.26934395410261
CYGFM02                 
1 41886U 16078C   24129.49420165  .00010199  00000+0  37277-3 0  9996
2 41886  34.9518 179.0153 0013588 208.8455 151.1509 15.27215585410189
CYGFM01                 
1 41887U 16078D   24129.55584836  .00010264  00000+0  39244-3 0  9999
2 41887  34.9490 195.5755 0013015 188.2669 171.7833 15.25737442409953
CYGFM08                 
1 41888U 16078E   24129.53409756  .00010748  00000+0  39864-3 0  9990
2 41888  34.9473 184.2779 0013899 210.4035 149.5875 15.26720695410124
CYGFM07                 
1 41890U 16078G   24129.45420846  .00010477  00000+0  38535-3 0  9990
2 41890  34.9500 176.3569 0010458 219.3574 140.6382 15.27040780410105
CYGFM03                 
1 41891U 16078H   24129.48673563  .00010171  00000+0  37504-3 0  9996
2 41891  34.9488 177.2965 0011413 204.7368 155.2801 15.26952643410097
FENGYUN 3D              
1 43010U 17072A   24129.54745649  .00000188  00000+0  11113-3 0  9993
2 43010  98.9082  83.9766 0002646  88.0424 272.1054 14.19331543335791
NOAA 20 (JPSS-1)        
1 43013U 17073A   24129.58977710  .00000156  00000+0  94429-4 0  9994
2 43013  98.7047  68.1777 0001160  35.9069 324.2185 14.19576006335289
GOES 17                 
1 43226U 18022A   24129.62574528 -.00000091  00000+0  00000+0 0  9996
2 43226   0.0041   3.0028 0000523  18.5057 325.9900  1.00271505 22703
FENGYUN 2H              
1 43491U 18050A   24128.90911830 -.00000130  00000+0  00000+0 0  9996
2 43491   1.0397  87.5135 0001126  22.3392 162.9933  1.00272416 21710
METOP-C                 
1 43689U 18087A   24129.58275186  .00000240  00000+0  12995-3 0  9998
2 43689  98.7261 189.3167 0002188 170.7108 189.4110 14.21487918285490
GEO-KOMPSAT-2A          
1 43823U 18100A   24128.81296022 -.00000345  00000+0  00000+0 0  9998
2 43823   0.0676  89.7088 0001797 339.5673 217.7822  1.00270405 19908
METEOR-M2 2             
1 44387U 19038A   24129.51830724  .00000069  00000+0  49591-4 0  9991
2 44387  98.8244  98.5928 0002418  81.1837 278.9615 14.23879470251749
ARKTIKA-M 1             
1 47719U 21016A   24127.38117565  .00000151  00000+0  00000+0 0  9995
2 47719  63.1375 156.5510 6928264 268.7856  18.0119  2.00601690 23309
FENGYUN 3E              
1 49008U 21062A   24129.59987977  .00000042  00000+0  40432-4 0  9993
2 49008  98.7327 131.4109 0002439 122.5274 237.6138 14.19748609147370
GOES 18                 
1 51850U 22021A   24128.48190344  .00000096  00000+0  00000+0 0  9999
2 51850   0.0063  48.1311 0000488 292.0032 282.1492  1.00270623  8047
NOAA 21 (JPSS-2)        
1 54234U 22150A   24129.55309033  .00000175  00000+0  10364-3 0  9993
2 54234  98.7501  67.9152 0000633  90.6710 269.4539 14.19561782 77359
METEOSAT-12 (MTG-I1)    
1 54743U 22170C   24128.05118933 -.00000006  00000+0  00000+0 0  9997
2 54743   0.4521  31.5782 0000988  31.8929 180.0660  1.00275548  5244
TIANMU-1 03             
1 55973U 23039A   24129.46483141  .00010833  00000+0  43077-3 0  9993
2 55973  97.4645 280.2610 0011293 244.0316 115.9759 15.25408991 62808
TIANMU-1 04             
1 55974U 23039B   24129.51364219  .00008144  00000+0  32506-3 0  9991
2 55974  97.4568 279.9125 0008487 241.8174 118.2207 15.25393907 62801
TIANMU-1 05             
1 55975U 23039C   24129.43383905  .00011399  00000+0  45418-3 0  9998
2 55975  97.4615 280.1296 0004877 229.7506 130.3306 15.25375723 62789
TIANMU-1 06             
1 55976U 23039D   24129.61515674  .00011586  00000+0  46150-3 0  9991
2 55976  97.4631 280.4187 0004290 230.2342 129.8519 15.25382546 62818
METEOR-M2 3             
1 57166U 23091A   24129.55361099  .00000055  00000+0  43295-4 0  9992
2 57166  98.7157 184.5764 0003019 234.5890 125.5007 14.23888336 44984
TIANMU-1 07             
1 57399U 23101A   24129.58120317  .00007041  00000+0  36467-3 0  9995
2 57399  97.3657 187.8559 0003999 344.2753  15.8356 15.16495598 44428
TIANMU-1 08             
1 57400U 23101B   24129.61694096  .00006270  00000+0  32487-3 0  9993
2 57400  97.3647 187.7684 0006328 344.3722  15.7315 15.16515454 44422
TIANMU-1 09             
1 57401U 23101C   24129.59903443  .00006460  00000+0  33499-3 0  9995
2 57401  97.3601 187.6188 0006618 338.3568  21.7385 15.16472435 44429
TIANMU-1 10             
1 57402U 23101D   24129.56465154  .00006978  00000+0  36164-3 0  9991
2 57402  97.3682 187.8200 0008784 334.1922  25.8872 15.16453484 44418
FENGYUN 3F              
1 57490U 23111A   24129.55601207  .00000156  00000+0  94632-4 0  9996
2 57490  98.7710 199.0493 0001228 137.5292 222.5980 14.19804193 39646
TIANMU-1 11             
1 58645U 23205A   24129.61815535  .00006481  00000+0  35483-3 0  9996
2 58645  97.4057 155.7388 0011980 172.4800 187.6614 15.14507569 20525
TIANMU-1 12             
1 58646U 23205B   24129.56832357  .00006262  00000+0  34294-3 0  9998
2 58646  97.4042 155.6277 0010768 164.1993 195.9577 15.14518975 20501
TIANMU-1 13             
1 58647U 23205C   24129.60088356  .00006228  00000+0  34111-3 0  9996
2 58647  97.4074 155.6382 0011159 150.4688 209.7177 15.14512504 20500
TIANMU-1 14             
1 58648U 23205D   24129.58486981  .00005760  00000+0  31566-3 0  9991
2 58648  97.3997 155.5260 0011634 151.3712 208.8161 15.14518813 20506
TIANMU-1 19             
1 58660U 23208A   24129.58910207  .00008272  00000+0  45411-3 0  9996
2 58660  97.4078 242.9963 0010638 138.5664 221.6377 15.14336100 20170
TIANMU-1 20             
1 58661U 23208B   24129.61353423  .00007643  00000+0  41045-3 0  9992
2 58661  97.4003 242.9842 0011297 148.0310 212.1610 15.15141744 20186
TIANMU-1 21             
1 58662U 23208C   24129.56299563  .00007927  00000+0  41580-3 0  9990
2 58662  97.4043 243.1220 0011021 148.1638 212.0263 15.15967525 20189
TIANMU-1 22             
1 58663U 23208D   24129.60521617  .00007807  00000+0  42908-3 0  9996
2 58663  97.4060 243.0967 0006311 154.3003 205.8544 15.14346624 20189
